UUID,Name,Location,Street Address,Suburb,State,Postcode,Telephone,Status,Latitude,Longitude,Create DateTime,Update DateTime
f2b074e5-e4e7-4506-9df1-1ef3d807ae9e,Anytime Fitness,Canberra,"Ground Level CCG House, 219 London Circuit",Canberra,ACT,2600,02 6230 4555,Open,,,,
79e82641-363f-4aab-8967-88a041c7cca2,Anytime Fitness,Casey,,Casey,ACT,,0448 611 761,Coming Soon,,,,
a584b368-e281-42e7-9a36-f8fef88bda0e,Anytime Fitness,Charnwood,26 Cartwright Street,Charnwood,ACT,2615,02 6259 1633,Open,,,,
f8b51deb-0898-460b-ac5d-831625380455,Anytime Fitness,Chisholm,1/68 Halley Street,Chisholm,ACT,2905,02 62922846,Open,,,,
8035b78e-b2e8-4427-b3af-917758780cba,Anytime Fitness,Dickson,"Level 1, 17 Woolley Street",Dickson,ACT,2602,02 6230 1333,Open,,,,
9e9985ca-a159-4af3-b3e9-847589d3a18c,Anytime Fitness,Fyshwick,"Level 1, 47 Newcastle Street",Fyshwick,ACT,2609,02 6280 6425,Open,,,,
61f3133c-3fb6-4c15-8e7e-18289ee69172,Anytime Fitness,Gungahlin,"33/46 Hibberson Street, Level 2, Coles Building, Corner Hibberson St & Gungahlin Place East",Gungahlin,ACT,2912,02 62415327,Open,,,,
48ca42da-7582-42cf-a443-9e1de434176e,Anytime Fitness,Jamison,15 Bowman Street,Jamison,ACT,2614,02 6162 2900,Open,,,,
f9833a6b-5c8c-4a77-aa55-8bf406504f0b,Anytime Fitness,Kingston,Unit 71 71 Giles Street,Kingston,ACT,2604,02 6295 9952,Open,,,,
f511ffd1-983a-462a-8d21-f182805448ee,Anytime Fitness,Lanyon,12 Sidney Nolan Street,Lanyon,ACT,2906,02 6284 7227,Open,,,,
7e3f5b20-ea51-462c-a504-28e226617476,Anytime Fitness,Tuggeranong,"Tuggeranong Hyperdome, Shop 1-008 House and Home Centre; Anketell Street",Tuggeranong,ACT,2900,02 62939620,Open,,,,
fceebad9-f709-4f89-b427-13838c787cb1,Anytime Fitness,Weston,8 Liardet Street,Weston,ACT,2611,02 6287 3707,Open,,,,
f0858ec1-bb48-4688-ba18-fedecc20915b,Anytime Fitness,Woden,101 Hindmarsh Drive,Woden,ACT,2606,02 6281 6258,Open,,,,
9a353913-1b38-4cf1-8450-ef423d2d10fc,Anytime Fitness,Albion Park,62 Terry Street,Albion Park,NSW,2527,0498 480 097,Open,,,,
5a290177-de67-4d41-acf0-2a70440af7f9,Anytime Fitness,Albury,1001 Waugh Rd,Albury,NSW,2640,02 6025 1811,Open,,,,
d383b22b-c09f-44ef-a015-55c702d9bafc,Anytime Fitness,Albury City,455 Kiewa Street,Albury City,NSW,2640,02 6041 4604,Open,,,,
33cd53dc-33f1-4d90-be80-55a9da9e4818,Anytime Fitness,Alexandria,222 Botany Road,Alexandria,NSW,2015,02 9310 1241,Open,,,,
f70e43de-cae6-4116-a971-78aa6a9e474b,Anytime Fitness,Armidale,Unit 2 / 182 Rusden Street,Armidale,NSW,2350,02 6772 8307,Open,,,,
01e2b6f9-cdd2-43b5-abdb-7ca903fa225a,Anytime Fitness,Ashfield,2 The Esplanade,Ashfield,NSW,2131, ,Open,,,,
a1571147-b44c-4f58-aa6a-82627754c3ef,Anytime Fitness,Auburn,"Auburn Central, Shop 29-32, Cnr Harrow & Queen Street",Auburn,NSW,2144,02 9643 5963,Open,,,,
278dfdc5-1e2c-447d-8f01-d95ef29b74f7,Anytime Fitness,Avalon,24 Avalon Parade,Avalon,NSW,2107,02 9918 4898,Open,,,,
3311c448-f296-4edd-a696-778304fa7b5d,Anytime Fitness,Ballina,"Shop 49, Ballina Fair Shopping Centre, Kerr Street",Ballina,NSW,2478,02 6681 6960,Open,,,,
538fa12d-6de4-45ab-a60a-44775ce4e499,Anytime Fitness,Balmain,91-95 Victoria Road,Balmain,NSW,2039,02 9555 2693,Open,,,,
552cdd9d-469b-4dce-b0b9-36b610f95918,Anytime Fitness,Bankstown,"Shops 8 - 9, The Appian Way",Bankstown,NSW,2190,02 9707 4588,Open,,,,
77661b83-f505-460a-8f33-3f63272b59b4,Anytime Fitness,Bass Hill,753 Hume Highway,Bass Hill,NSW,2197,0481 333 403,Open,,,,
ecfdfa2a-daa9-4f22-8f7f-070987c82b6c,Anytime Fitness,Batemans Bay,"Level 1, Corner of Princes Highway and Beach Road",Batemans Bay,NSW,2536,02 4472 9314,Open,,,,
4fae2f3d-2784-43bd-b207-54e8cfa5f7d5,Anytime Fitness,Bathurst,"241 George Street, (cnr George and Piper Streets)",Bathurst,NSW,2795,02 63322505,Open,,,,
428945f0-06e4-49a9-8dba-c583869575c8,Anytime Fitness,Baulkham Hills,21-23 Old Northern Road,Baulkham Hills,NSW,2153,02 9639 8584,Open,,,,
70868762-48a2-4d6f-8f4b-5411e7fd058e,Anytime Fitness,Belfield,1/35 Burwood Road,Belfield,NSW,2191,02 9642 1989,Open,,,,
e4bcb813-0f5c-439d-be5e-fd865d253a6a,Anytime Fitness,Belmont,438 Pacific Highway,Belmont,NSW,2280,02 4945 3175,Open,,,,
7df417ab-adcc-405f-b53a-d21e09c5df4f,Anytime Fitness,Berowra,25-29 Turner Road,Berowra,NSW,2082,02 9456 4975,Open,,,,
d4b2d7bb-350f-4c51-9950-aba01e02b25e,Anytime Fitness,Blacktown,"Blacktown Mega Centre, Shop C1, 14 St Martins Crescent",Blacktown,NSW,2148,02 9671 2800,Open,,,,
fdf228c1-611f-44ed-839a-7e2e70bdf81b,Anytime Fitness,Bondi Junction,100 Ebley Street,Bondi Junction,NSW,2022,02 9386 9350,Open,,,,
bc1f827b-186e-426b-99de-ca63f1807563,Anytime Fitness,Bonnyrigg,38/100 Bonnyrigg Avenue,Bonnyrigg,NSW,2177,02 9823 6450,Open,,,,
7c08421c-cebd-4c0e-a924-eeeffec4dea1,Anytime Fitness,Botany,1116 Botany Road,Botany,NSW,2019,02 9316 7985,Open,,,,
96864d59-397a-43ea-a2ba-08a92089310c,Anytime Fitness,Bowral,Shop C2 / 68-70 Station Street,Bowral,NSW,2576,02 4862 1874,Open,,,,
c77321b1-a404-40ea-b148-89a4874568d3,Anytime Fitness,Branxton,,Branxton,NSW,,,Coming Soon,,,,
74725181-a543-4a08-aa91-2dbe9ac24a60,Anytime Fitness,Broken Hill,357 Argent Street,Broken Hill,NSW,2880,08 8088 1702,Open,,,,
76b6c9a6-1a4d-45b2-979b-4039e1925ce8,Anytime Fitness,Brookvale,"2002/2004 Dale St, Warringah Mall",Brookvale,NSW,2100,02 9907 1171,Open,,,,
b105a973-b608-472a-b91b-c4e4322370c8,Anytime Fitness,Burwood,3 Railway Parade,Burwood,NSW,2134,02 9715 6204,Open,,,,
3aab78ad-8332-415f-ac03-039fdc6e021c,Anytime Fitness,Cabramatta,Unit 8/169-173 Hume Highway,Cabramatta,NSW,2166,02 9728 1080,Open,,,,
5c632eaa-2d31-462a-974a-c5744a783302,Anytime Fitness,Campbelltown,304 Queen Street,Campbelltown,NSW,2560,02 4620 7215,Open,,,,
6f68bc82-fd67-4c5a-83fc-4a3e85356f62,Anytime Fitness,Campsie,19 Claremont Street,Campsie,NSW,2194,02 9718 0147,Open,,,,
ba6ad82f-84bc-41d1-aac8-4c4b619c7c73,Anytime Fitness,Caringbah,329 Kingsway,Caringbah,NSW,2229,02 9524 1088,Open,,,,
9fe4e8b4-844c-4afd-b6e5-53482ba15ee5,Anytime Fitness,Carlingford,241-245 Pennant Hills Road,Carlingford,NSW,2118,02 9873 2700,Open,,,,
3a56211a-6727-47e8-94e8-09fff759ae59,Anytime Fitness,Castle Hill,"Unit 7, 10 Hudson Avenue",Castle Hill,NSW,2154,02 9659 9588,Open,,,,
11d99ccb-84c5-4e07-a88b-a867e43825d3,Anytime Fitness,Cessnock,Shop 7-205 Wollombi Rd,Cessnock,NSW,2325,02 49913534,Open,,,,
4001c7c5-57bc-479e-9a30-692ff01fb1d0,Anytime Fitness,Chatswood,"Level 2, 370 Victoria Avenue",Chatswood,NSW,2067,02 9411 7446,Open,,,,
82aba4c3-681c-4165-9af4-91d382211ebd,Anytime Fitness,Chullora,"4/165 Rookwood Road, Entry via Muir Road",Chullora,NSW,2199,02 9709 3322,Open,,,,
78e58f17-221d-4715-9f3b-d7f6b71f515a,Anytime Fitness,Cooma,108 Commissioner Street,Cooma,NSW,2630,02 64521522,Open,,,,
b20c721a-c33a-4048-9c75-3232d444c548,Anytime Fitness,Corrimal,417 Princes Highway,Corrimal,NSW,2518,02 4285 9883,Open,,,,
f3a5ff02-a65c-47b8-bca8-6986dfead8f5,Anytime Fitness,Dapto,"Shop 2, 29-31 Princes Highway",Dapto,NSW,2530,02 4260 8021,Open,,,,
38b7580b-f035-4ad0-b840-1b83c649bf89,Anytime Fitness,Dee Why,"Dee Why Market, 23 Oaks Avenue",Dee Why,NSW,2099,02 9984 8026,Open,,,,
935bf577-3d9e-43b8-92ff-aa95e1adbd43,Anytime Fitness,Drummoyne,71 Victoria Road,Drummoyne,NSW,2047,02 9181 5222,Open,,,,
d87d9d3a-efc4-4b06-8e65-44b9cfdd2a08,Anytime Fitness,Dubbo,"1/1 Commercial Avenue, BlueRidge Business Park",Dubbo,NSW,2830,02 6885 2448,Open,,,,
c6f7d509-7f35-46a0-b5db-cbf55aa4e985,Anytime Fitness,Dubbo West,"1 Torvean Avenue, Delroy Park",Dubbo West,NSW,2830,02 6884 6609,Open,,,,
76506918-bbd9-4899-9865-0a02e8e83388,Anytime Fitness,Dural,Unit 6 286-288 New Line Road,Dural,NSW,2158,02 9651 3554,Open,,,,
b164f804-5cbe-4dff-91fa-63478210e255,Anytime Fitness,Earlwood,371 - 373 Homer Street,Earlwood,NSW,2207,02 9558 0615,Open,,,,
10edf724-1de3-4198-91cc-d42ced7cb5e9,Anytime Fitness,Edgecliff,179-191 New South Head Road,Edgecliff,NSW,2027,02 9327 1498,Open,,,,
8606be09-633c-4f8b-be47-d391c3091966,Anytime Fitness,Edgeworth,"Shop LG1 Edgeworth Town Mall, 720 Main Road",Edgeworth,NSW,2285,02 4953 0209,Open,,,,
a4764a01-737e-4c8f-b8c7-8a359f666c90,Anytime Fitness,Edmondson Park,1956 Camden Valley Way,Edmondson Park,NSW,2171,02 9826 5273,Open,,,,
a62bfded-95e2-4077-9241-0f9b826cd253,Anytime Fitness,Emerton,135 Popondetta Rd,Emerton,NSW,2770,02 9675 7140,Open,,,,
7405567e-9b78-479c-ae74-a4a3905aaeee,Anytime Fitness,Emu Plains,"Lennox Shopping Centre, Great Western Highway",Emu Plains,NSW,2750,02 4735 5093,Open,,,,
47426ba1-a25f-4783-a2db-560940a8305e,Anytime Fitness,Engadine,24-28 Station Street,Engadine,NSW,2233,02 9548 6006,Open,,,,
64d56067-0704-4bec-b855-89e54cf2be4a,Anytime Fitness,Erina,310 The Entrance Road,Erina,NSW,2250,02 4367 7922,Open,,,,
313d59de-32ae-4c4d-97e3-11c084a55434,Anytime Fitness,Fairfield,8 Nelson Street,Fairfield,NSW,2165,02 9724 5004,Open,,,,
5a2614c4-7510-4f7c-b9d9-f8082be1d1dc,Anytime Fitness,Fairfield East,"Unit 6, 708-712 Woodville Road",Fairfield East,NSW,2165,02 9681 7354,Open,,,,
e4d02d2c-0ee2-4ee4-8558-83f271790c11,Anytime Fitness,Fairfield West,366 Hamilton Road,Fairfield West,NSW,2165,02 9756 3970,Open,,,,
1439a326-05dc-4cc3-85c2-0271692c83b0,Anytime Fitness,Fairy Meadow,"Unit 5, 135-143 Princes Highway",Fairy Meadow,NSW,2519,02 4226 4463,Open,,,,
ec612820-0169-4a52-a930-241809051fa9,Anytime Fitness,Figtree,147 The Avenue,Figtree,NSW,2525,02 4226 5078,Open,,,,
bf934442-6b61-487e-918d-870b26a502c2,Anytime Fitness,Five Dock,134 Great North Road,Five Dock,NSW,2046,02 8753 0028,Open,,,,
03e238a0-4b8c-4502-9fef-346fa381b8b2,Anytime Fitness,Forbes,131-135 Rankin Street,Forbes,NSW,2871,02 6851 5400,Open,,,,
5eb39626-96ce-423d-930b-9cf8f26848a4,Anytime Fitness,Forster,Shop 15 Stockland Centre,Forster,NSW,2428,02 6554 9212,Open,,,,
cf8a5fb5-dbb1-4910-ab7b-8f973cdd6050,Anytime Fitness,Frenchs Forest,"Unit E, Ground Floor 5 Skyline Place",Frenchs Forest,NSW,2086,02 9451 0329,Open,,,,
f4f74ca3-ccf4-43b1-83e8-ee6d6bb8db42,Anytime Fitness,Gateshead,5 Pacific Highway,Gateshead,NSW,2290,02 4943 1910,Open,,,,
158128fa-760c-4832-9b49-4d117f0e10cf,Anytime Fitness,Gladesville,408 Victoria Road,Gladesville,NSW,2111,02 9817 3841,Open,,,,
c2a657be-341e-4db9-bc08-44a46d8b3439,Anytime Fitness,Glebe,1-9 Glebe Point Road,Glebe,NSW,2037,02 9571 9873,Open,,,,
962ec8da-4c43-42e0-9c2d-61816db05662,Anytime Fitness,Glendenning,6/197 Power St,Glendenning,NSW,2761,02 9625 5651,Open,,,,
8c2c5449-2382-4807-a84d-0176b58fba78,Anytime Fitness,Glenfield Park,159 Fernleigh Road,Glenfield Park,NSW,2650,02 69712573,Open,,,,
9a4ebefc-01b9-4fc1-8676-f5449d1e2a0f,Anytime Fitness,Goulburn,322-326 Auburn St,Goulburn,NSW,2580,02 48210432,Open,,,,
f26b6655-5edd-489e-ab10-ce79302ec1e2,Anytime Fitness,Grafton,"Lot 1-2, Iolanthe Street",Grafton,NSW,2460,02 6642 3055,Open,,,,
44c3ad8e-12b1-4e46-985b-08c33bd4d34b,Anytime Fitness,Green Hills,11 Molly Morgan Drive,Green Hills,NSW,2323,02 4933 1000,Open,,,,
5aba2a78-3790-459d-8bd2-25e186e1f9b2,Anytime Fitness,Griffith,2/86 Willandra Avenue,Griffith,NSW,2680,02 6962 4222,Open,,,,
35e108ca-6553-4260-8e68-957154929d97,Anytime Fitness,Gunnedah,"Shop 4, Gunnedah Shopping Centre Little Conadilly Street",Gunnedah,NSW,2380,02 6742 0555,Open,,,,
0ca8a934-e227-4016-a775-30173db76172,Anytime Fitness,Hornsby,185 Pacific Highway,Hornsby,NSW,2077,02 9476 1285,Open,,,,
bf2c02a6-b2db-40c3-9b8b-5d88c99cbccc,Anytime Fitness,Hoxton Park,20 Mustang Drive,Hoxton Park,NSW,2171,02 8783 7711,Open,,,,
108122e8-19e5-46cb-89d9-5828a3392523,Anytime Fitness,Hurlstone Park,"Crinan St and Canterbury Rd, 20-26 Canterbury Road",Hurlstone Park,NSW,2193,02 9559 0026,Open,,,,
38e98526-0f26-482e-a34b-cbab0e30b045,Anytime Fitness,Hurstville,124 Forest Road,Hurstville,NSW,2220,02 9580 0998,Open,,,,
91f76f01-e089-413e-a0b0-c7adb3a6733b,Anytime Fitness,Illawong,273 Fowler Road,Illawong,NSW,2234,02 9543 2074,Open,,,,
1744d965-4db8-43d9-b55b-4d50ce6a499a,Anytime Fitness,Inverell,"Central Plaza, 121 Byron Street",Inverell,NSW,2360,02 6721 4820,Open,,,,
bedbd004-6110-48d8-a253-61c0d68cb994,Anytime Fitness,Jerrabomberra,"Shop 13 Jerrabomberra Village Shopping Centre, Limestone Drive",Jerrabomberra,NSW,2619,02 6255 8464,Open,,,,
e7c3e516-f94f-4e66-a2b5-e89fd770c837,Anytime Fitness,Jordan Springs,"Woolworths Shopping Village, 1 Lakeside Parade",Jordan Springs,NSW,2747,0488 855 FIT,Open,,,,
1febdf7b-9fc9-4deb-a466-92337c116510,Anytime Fitness,Katoomba,1/44 Wilson Street,Katoomba,NSW,2780,02 4782 6643,Open,,,,
ef0c981e-93a8-4965-a2dc-c09f085201f1,Anytime Fitness,Kempsey,14 Clyde Street,Kempsey,NSW,2440,02 6562 5500,Open,,,,
64635b8c-e9b5-493f-900e-ed689cc59792,Anytime Fitness,Kiama,3/3 Brown St,Kiama,NSW,2533,02 42321063,Open,,,,
a579aa0e-1cbb-43c0-b79a-2eafb9f8e8a7,Anytime Fitness,Kincumber,34 Avoca Drive,Kincumber,NSW,2251,02 4369 1600,Open,,,,
c1fac1a9-4f31-4c20-bee9-952f944d9a20,Anytime Fitness,Kings Park,Unit 1/152 Sunnyholt Road,Kings Park,NSW,2148,02 9622 4270,Open,,,,
0952048e-98d0-45b1-814b-1c1b23e81a77,Anytime Fitness,Kotara,"Unit 5, 6 Bradford Close",Kotara,NSW,2289,02 4952 4600,Open,,,,
884ecb94-d5aa-494b-9069-d85cffbe4283,Anytime Fitness,Kurri Kurri,110 Lang Street,Kurri Kurri,NSW,2327,02 4937 4969,Open,,,,
bebfe520-42f3-454d-9830-0f4faf770d77,Anytime Fitness,Lake Haven,"Unit T03, Lake Haven Mega Centre, Cnr Pacific Hwy & Lake Haven Dr",Lake Haven,NSW,2263,02 4392 1811,Open,,,,
5278617e-e17e-4903-a823-05e37a20ded4,Anytime Fitness,Lane Cove,71 Longueville Rd,Lane Cove,NSW,2066,02 9418 6299,Open,,,,
94a80ca0-662f-4567-a2ce-ec7a8bae7ed8,Anytime Fitness,Leeton,37 Kurrajong Avenue,Leeton,NSW,2705,02 6953 3235,Open,,,,
108e7934-df4a-4492-b41e-5f358d935f49,Anytime Fitness,Leichhardt,55 Norton Street,Leichhardt,NSW,2040,02 9569 2457,Open,,,,
e7b4ef51-88c4-46f8-af8d-8747b2adbd8f,Anytime Fitness,Lismore,"Shop 8-11 Goonellabah Shopping Centre, Simeonei Dr & Oliver Ave",Lismore,NSW,2480,02 6624 5678,Open,,,,
a041cab3-adbd-4dc1-b0d1-77c5148fab89,Anytime Fitness,Lithgow,1 Naomi Street,Lithgow,NSW,2790,02 6351 4251,Open,,,,
ff8f539c-ddc9-4739-abd3-edd13afa0a81,Anytime Fitness,Liverpool,64 Macquarie Street,Liverpool,NSW,2170,02 9601 3862,Open,,,,
98f008ad-a476-4d29-ab2c-5dc5643ae4a5,Anytime Fitness,Macquarie Fields,Brooks Street and Victoria Road,Macquarie Fields,NSW,2564,02 9605 6620,Open,,,,
3c34b026-3e5e-47a1-b423-281a233a9448,Anytime Fitness,Macquarie Park,"Suite 1.01, Building 1 35 Waterloo Road",Macquarie Park,NSW,2113,02 9889 1880,Open,,,,
1147b476-22c6-4e4b-8e15-ed1373359f7f,Anytime Fitness,Manly,2-5 Pittwater Rd,Manly,NSW,2095,02 9976 3607,Open,,,,
9bc2f3c3-2dc1-46ef-8c1b-171d75d8d70b,Anytime Fitness,Maroubra,205 Maroubra Road,Maroubra,NSW,2035,0438 054 837,Open,,,,
9d46e6ca-1967-4139-b97b-f21d51dbe8b3,Anytime Fitness,Marrickville,142 Marrickville Road,Marrickville,NSW,2204,02 9517 3050,Open,,,,
60727cdd-23b3-4b25-9ca6-9c69387cca7f,Anytime Fitness,Mascot,230 Coward Street,Mascot,NSW,2020,02 8339 1688,Open,,,,
3fb84b0e-8547-490c-8207-f2ab3b988441,Anytime Fitness,Mayfield,109-111 Maitland Road,Mayfield,NSW,2304,02 4960 8002,Open,,,,
cba2c0e5-fc9b-4ffd-9766-6d655f0107b0,Anytime Fitness,McMahons Point,182 Blues Point Road,Mcmahons Point,NSW,2060,02 8920 1551,Open,,,,
25fed1ba-642d-487e-9b90-4c01bfa0718d,Anytime Fitness,Merrylands,"Merrylands RSL, Level 4 Carpark (Entrance off Miller St) 14 Military Road",Merrylands,NSW,2160,02 9682 5407,Open,,,,
7b73653e-51b3-42aa-bd90-c9f15048a558,Anytime Fitness,Miller,"Shop 51, 90 Cartwright Avenue",Miller,NSW,2168,02 9607 3580,Open,,,,
37e85f97-a379-4d87-aaa6-6e2fc5499132,Anytime Fitness,Minto,46 Ben Lomond Road,Minto,NSW,2566,02 9820 1562,Open,,,,
43f52751-d9e4-4be8-bb15-495d07281d95,Anytime Fitness,Miranda,615 Kingsway,Miranda,NSW,2228,02 9542 7077,Open,,,,
5243efdb-a03e-47a4-abdf-20673d834100,Anytime Fitness,Moorebank,"Lot 19 & 20 Moorebank Shopping Village, Maddecks Avenue and Stockton Avenue",Moorebank,NSW,2170,02 9822 7910,Open,,,,
39b320e9-88aa-41ff-8a30-a1a9f67bfb90,Anytime Fitness,Morisset,4/50 Alliance Ave,Morisset,NSW,2264,02 4973 3089,Open,,,,
f44a111a-098a-428d-b100-10e1213c24d8,Anytime Fitness,Mosman,"Level 1, 22 Spit Road",Mosman,NSW,2088,02 9969 3735,Open,,,,
a43d40e8-7aa1-40a7-8fa7-a333e4ea1d26,Anytime Fitness,Mount Druitt,"Shop No. Pad 3, Corner of Luxford Road and Carlisle Avenue",Mount Druitt,NSW,2770,02 9832 4252,Open,,,,
5b496752-0382-415e-9c76-559cc9d31c02,Anytime Fitness,Mt Annan,"shop 14b, 2-4 Main Street",Mt Annan,NSW,2567,02 4647 7664,Open,,,,
d9dbdf1e-b5cd-4a54-a273-69ea8bd26f54,Anytime Fitness,Mudgee,96b Mortimer Street,Mudgee,NSW,2850,02 6372 6387,Open,,,,
3cbf12cf-f6c3-464f-bc7f-c9b31af920f9,Anytime Fitness,Muswellbrook,"Colonial Arcade, 52 Bridge Street",Muswellbrook,NSW,2333,02 6541 5433,Open,,,,
d8231c79-b1e7-4ba4-a808-b8423c6c9b29,Anytime Fitness,Narrabri,68-70 Barwan Street,Narrabri,NSW,2390,02 6792 4537,Open,,,,
091b462c-d6ab-4677-b67d-d99dad2877a8,Anytime Fitness,Neutral Bay,124 Military Rd,Neutral Bay,NSW,2089,02 9904 5146,Open,,,,
70bd8995-52ec-4f58-a276-9be1e17874d4,Anytime Fitness,Newcastle West,"Shop S01 & A01 Marketown East Shopping Centre, 23 Steel St",Newcastle West,NSW,2302,02 4925 2226,Open,,,,
647cb7e2-0258-4f41-8637-5c600d8d4267,Anytime Fitness,Newington,"2 Slough Avenue, Unit 44",Newington,NSW,2128,0479 021 292,Open,,,,
68b0a803-90e0-49d9-a0a4-49f273972ae6,Anytime Fitness,North Parramatta,21 Sorrell,North Parramatta,NSW,2151,02 9683 4705,Open,,,,
5d1224dc-501c-4ba1-985d-fe4a7576f3ac,Anytime Fitness,North Rocks,328-336 North Rocks Road,North Rocks,NSW,2151,02 9873 1800,Open,,,,
e37509ee-7210-4e13-8eab-2028281793b3,Anytime Fitness,North Strathfield,13 George Street,North Strathfield,NSW,2137,02 97460709,Open,,,,
f5cd6074-a21f-4892-b4a0-f2980a1dec19,Anytime Fitness,North Sydney,"Level 1, 118 Walker Street",North Sydney,NSW,2060,02 8920 3322,Open,,,,
9fe59bc8-d5c1-460c-97b7-a28c4317f820,Anytime Fitness,Northbridge,135 Sailors Bay Road,Northbridge,NSW,2063,02 9967 5996,Open,,,,
80f59487-0e3e-4784-9288-23edb5c2b713,Anytime Fitness,Norwest,"Shop 3, 1-3 Meridian Place",Norwest,NSW,2153,02 8883 3799,Open,,,,
8ed7b979-e381-4536-9e76-c0dd4a8c69b9,Anytime Fitness,Nowra,"Shop 9, 28 Central Avenue",Nowra,NSW,2541,02 4422 8551,Open,,,,
b357f185-3519-45dd-95ab-fe492b8f22ef,Anytime Fitness,Oran Park,"Tenancy 101, Oran Park Town Centre 351 Oran Park Drive",Oran Park,NSW,2570,02 4604 2444,Open,,,,
cb333cdd-ba0f-48fa-8e93-84dec504ff8a,Anytime Fitness,Orange,179-181 Byng Street,Orange,NSW,2800,02 6362 7333,Open,,,,
e01ae3be-ad52-427b-8b0d-2688a66df5aa,Anytime Fitness,Parramatta,37-39 Cowper Street,Parramatta,NSW,2150,0488 870 050,Open,,,,
38cd04c9-9be0-4083-837f-f4dc7a3f112c,Anytime Fitness,Pemulwuy,"Level 1, 30 Watkin Tench Pde",Pemulwuy,NSW,2145,02 9636 3113,Open,,,,
2f0c6ed4-de4f-4d10-a920-ab7d91e17e55,Anytime Fitness,Pennant Hills,375 Pennant Hills Rd,Pennant Hills,NSW,2120,02 9980 2293,Open,,,,
610e6ca6-2362-4691-aa7f-8988b9432b57,Anytime Fitness,Penrith,99 Woodriff Street,Penrith,NSW,2750,02 4721 4119,Open,,,,
76d960e7-f083-40ff-addb-a52c0378f4af,Anytime Fitness,Penrith (Westfield),22/23 Station Street,Penrith,NSW ,2750,02 4721 0870,Open,,,,
4e5854c4-1619-43e3-a7cf-ade239d529b7,Anytime Fitness,Port Macquarie,Short Street and Haywood Street,Port Macquarie,NSW,2444,02 6583 7356,Open,,,,
816c7d52-b5d6-429e-900c-3d241d48af31,Anytime Fitness,Potts Point,"Lower Ground Level, 14 Kings Cross Road",Potts Point,NSW,2011,02 9356 4395,Open,,,,
5090dcc8-29c1-4a06-964f-ddd1d4b697f2,Anytime Fitness,Punchbowl,1 The Broadway,Punchbowl,NSW,2196,02 8599 2047,Open,,,,
e50b0510-32a8-4528-90fb-56812357bb77,Anytime Fitness,Pymble,107 Grandview Street,Pymble,NSW,2073,02 9144 7651,Open,,,,
9fb15af7-3495-4059-8884-e4bcf9c1a1a3,Anytime Fitness,Pyrmont,"Level 1, 210 Harris Street",Pyrmont,NSW,2009,02 9660 7176,Open,,,,
fad7d4e5-132d-42e1-a4e6-3e7dce6b5b8c,Anytime Fitness,Quakers Hill,"Shop 4, 216 Farnham Rd",Quakers Hill,NSW,2763,02 9626 3956,Open,,,,
dcf2e80d-7b45-41d9-9310-9936a4de8219,Anytime Fitness,Queanbeyan,71 Monaro Street,Queanbeyan,NSW,2620,02 6232 9047,Open,,,,
149f35b0-b96e-4b71-9175-eb3f6631cd1a,Anytime Fitness,Ramsgate,316 - 318 Rocky Point Road,Ramsgate,NSW,2217,02 9529 3020,Open,,,,
00034dd3-5b05-45b8-bf4d-8196f31f00ff,Anytime Fitness,Randwick,"73 Belmore Road, Royal Randwick Shopping Cntr",Randwick,NSW,2031,02 9326 6155,Open,,,,
082146aa-1a2a-4048-9ee7-6bc91ef3326f,Anytime Fitness,Raymond Terrace,40 Richardson Rd,Raymond Terrace,NSW,2324,02 4983 2060,Open,,,,
0de20ef8-1734-4a49-a3bb-9bdfef1c8c92,Anytime Fitness,Revesby,1/134 Beaconsfield Street,Revesby,NSW,2212,02 9773 1746,Open,,,,
fa776c32-7621-4909-9068-940e69ec4bf4,Anytime Fitness,Richmond,"Level 1, 10 West Market Street",Richmond,NSW,2753,02 4588 6664,Open,,,,
fbe459d2-9a56-4f77-935c-e8388e263dbb,Anytime Fitness,Rockdale,383 West Botany Street,Rockdale,NSW,2216,02 9597 5192,Open,,,,
68ff0a4f-a3be-4dcc-ba4a-666e69a1b2b4,Anytime Fitness,Rose Bay,737 New South Head Road,Rose Bay,NSW,2029,02 9388 1330,Open,,,,
1fb13c56-e7fe-4abb-b9fa-c2a30a97b510,Anytime Fitness,Rouse Hill,"Level 1, Cnr Main Street & Link Lane, Rouse Hill Town Centre",Rouse Hill,NSW,2155,02 8814 5988,Open,,,,
cd748b40-205c-499d-aa37-7dfe4913228d,Anytime Fitness,Rutherford,"Shop 11-12, 15 North Mall",Rutherford,NSW,2320,02 4931 9785,Open,,,,
35bd4cd3-eb4e-4752-892d-725772531e49,Anytime Fitness,Salamander Bay,7/5 Town Centre Circuit,Salamander Bay,NSW,2317,02 4919 1942,Open,,,,
21553f3e-bf3c-41fe-8fb4-f254ec3985ed,Anytime Fitness,Scone,167 Kelly Street,Scone,NSW,2337,02 6545 1631,Open,,,,
8d119c2f-f9a2-454f-a265-aecb85c1cabe,Anytime Fitness,Shellharbour,"Shop 6 & 7, Suite 15 - 17 2 Memorial Drive",Shellharbour,NSW,2529,02 4295 1427,Open,,,,
7b1c3b8d-9dd1-45b2-bf9e-a0b0b8789dbd,Anytime Fitness,Singleton,1/19 Ryan Avenue,Singleton,NSW,2330,02 6571 1900,Open,,,,
5a935a80-7211-4777-a6af-e1493449ab3a,Anytime Fitness,Springwood,"Shop 10, 7-9 Raymond Road",Springwood,NSW,2777,02 4751 5255,Open,,,,
d5b225a1-8dfe-4f39-b0f2-47a8a2c0ee3e,Anytime Fitness,St Leonards,"Part Ground Floor and 1st Floor, 657 Pacific Highway",St Leonards,NSW,2065,02 9439 1550,Open,,,,
4505b0b9-1f87-4bdc-a965-d4b79edc4282,Anytime Fitness,St Marys,"Unit 2, 498-500 Great Western Highway",St Marys,NSW,2760,02 9623 3300,Open,,,,
fb2445fe-735b-4009-9439-68bb98aaed6c,Anytime Fitness,Surry Hills,"Level 1, 60 Reservoir Street",Surry Hills,NSW,2010,02 9211 0210,Open,,,,
c1efdb5a-3e1e-4652-a0a4-649430a44ced,Anytime Fitness,Sutherland,570 President Avenue,Sutherland,NSW,2232,02 9521 3467,Open,,,,
88d12c82-e841-4f82-bea0-0c1de82d078d,Anytime Fitness,Sydney Hyde Park,227 Elizabeth Street,Sydney,NSW,2000,0413 252 695,Open,,,,
a343a07a-692a-427a-8670-173b29e3cc2a,Anytime Fitness,Sydney Circular Quay,Level 1/22 Pitt Street,Sydney,NSW,2000,02 9247 0946,Open,,,,
ed2cbeff-e61b-4057-b679-2a785bdb68cc,Anytime Fitness,Sydney Wynyard,309 - 315 George Street,Sydney,NSW,2000,02 9279 2362,Open,,,,
d5736764-2485-4621-9764-e17a90597cd4,Anytime Fitness,Sylvania,230 Princess Highway,Sylvania,NSW,2224,02 9544 6200,Open,,,,
c8a32ce8-d079-4662-99e3-42e55633e37b,Anytime Fitness,Tamworth,Shop 1 'Kable Corner' 1 Darling St,Tamworth,NSW,2340,02 6761 2155,Open,,,,
93d448cd-01c0-4548-90e7-6af463ffc74f,Anytime Fitness,Taree,"Unit 1, 12 Mill Close",Taree,NSW,2430,02 6550 1511,Open,,,,
f4a53a2e-b489-4ec8-9a93-d62774a0b831,Anytime Fitness,The Entrance,"Diggers @ The Entrance, 315 The Entrance Road",The Entrance,NSW,2261,02 4333 1441,Open,,,,
ebf32ffd-a3cf-4a3f-adc0-e4dd917298a8,Anytime Fitness,Thornton,"Unit 2, Thornton Supa Centre Thornton Rd",Thornton,NSW,2322,02 4966 2111,Open,,,,
a2827c5a-c3dc-47cc-8c54-586026710949,Anytime Fitness,Toongabbie,"Portico Plaza, Corner Corneilia Road and Junia Road",Toongabbie,NSW,2146,02 9688 2909,Open,,,,
906e1dbd-d9ef-4b77-af82-7d8d8c114c33,Anytime Fitness,Toronto,"Shop 3, 2 James Street",Toronto,NSW,2283,02 4950 5332,Open,,,,
02f45072-a20a-4130-a006-db86b7dce9a5,Anytime Fitness,Tuggerah,154 Pacific Highway,Tuggerah,NSW,2259,02 4353 3244,Open,,,,
4b476958-e032-4927-8dfc-7d17001cee23,Anytime Fitness,Tweed Heads South,Cnr Machinery and Minjungbal Drives,Tweed Heads South,NSW,2486,07 5523 0242,Open,,,,
59598a7c-a76d-46a3-bfac-ce6d493ba4d6,Anytime Fitness,Ulladulla,1/114 Princes Hwy,Ulladulla,NSW,2539,02 4455 3471,Open,,,,
91d334b7-468d-4d4a-9d1d-11fd7b250db8,Anytime Fitness,Unanderra,227 Princess Highway,Unanderra,NSW,2526,02 4272 1010,Open,,,,
d091c50b-95eb-476b-9212-189496100524,Anytime Fitness,Vincentia,"Shop MM2 Vincentia Market Place, 8 Moona Creek Road",Vincentia,NSW,2540,0417 129 636,Open,,,,
3ab1cf97-36b4-4956-8830-ac5eb797572c,Anytime Fitness,Wagga Wagga,25 Baylis Street,Wagga Wagga,NSW,2650,02 6921 9827,Open,,,,
54dd5123-443e-4827-a9b8-aca0c66f4779,Anytime Fitness,Wallsend,29 Tyrrell Street,Wallsend,NSW,2287,02 4965 6460,Open,,,,
867b4aa8-cc1f-40fa-9290-e667af088dad,Anytime Fitness,Warners Bay,323 Hillsborough Road,Warners Bay,NSW,2282,02 4954 4288,Open,,,,
5f2f855a-e087-4bbf-8aeb-d9b1bbed615a,Anytime Fitness,Warrawong,99 King Street,Warrawong,NSW,2502,02 4274 2585,Open,,,,
9d4810c6-0bf7-41b9-8ee5-31446d366094,Anytime Fitness,Wentworthville,326 Great Western Highway,Wentworthville,NSW,2145,02 9636 2273,Open,,,,
25fceab6-f81f-41bf-af42-134277ada6b6,Anytime Fitness,West Gosford,"Suites 6-7 Riverside Park, 69 Central Coast Hwy",West Gosford,NSW,2250,02 4322 4355,Open,,,,
a7adfb9c-a21e-4f36-9059-74fb6d6a3751,Anytime Fitness,West Ryde,998 Victoria Road,West Ryde,NSW,2114,02 9808 3309,Open,,,,
dbfb2d42-bd84-4574-86f0-f030ae3d31a8,Anytime Fitness,Wetherill Park,"Greenway Supacenta, 10/1183-1187 Horsley Drive",Wetherill Park,NSW,2164,02 9725 5488,Open,,,,
6f98602e-e4f8-4b44-a128-dfb32f81d98b,Anytime Fitness,Windsor,Brabyn Street and George Street,Windsor,NSW,2756,02 4577 9927,Open,,,,
af96ca2b-a49c-40e4-a6d1-54724bcf1b24,Anytime Fitness,Winston Hills,53 Buckleys Road,Winston Hills,NSW,2153,0424 460 122,Open,,,,
63f4ec38-2332-408c-901a-cfdba92b9398,Anytime Fitness,Wollongong,118 Corrimal Street,Wollongong,NSW,2500,0418 988 405,Open,,,,
51b3d9f4-db4c-4197-9a1e-66994347f0ce,Anytime Fitness,Woonona,378/380 Princess Highway,Woonona,NSW,2517,02 4283 6955.,Open,,,,
62633335-2f43-4af0-8633-523d29c9ccfb,Anytime Fitness,Woy Woy,"Level 1, The Pavilion 29-37 George St",Woy Woy,NSW,2256,02 4342 5111,Open,,,,
c625f8c4-264f-4778-b669-159cfb5f073c,Anytime Fitness,Wyoming,8 Brooks Avenue,Wyoming,NSW,2250,02 4328 2244,Open,,,,
5fea1f46-f940-4f20-9bbd-5bc6b970f871,Anytime Fitness,Young,"Shop 3, 327 Boorowa Street",Young,NSW,2594,02 6382 2332,Open,,,,
50f563ed-340c-4552-9950-ebf59f8d3789,Anytime Fitness,Alice Springs,6 / 8 Gregory Terrace,Alice Springs,NT,870,08 8953 1404,Open,,,,
f564bb4d-a333-4ef7-8255-f80d09df7092,Anytime Fitness,Stuart Park,40 Stuart Highway,Stuart Park,NT,820,08 8941 9795,Open,,,,
8a09d92a-8e71-4c66-abef-ee7422141699,Anytime Fitness,Albany Creek,"Shop 26, Twin Village Shopping Center 5-15 Jagora Drive",Albany Creek,QLD,4035,07 3264 2614,Open,,,,
2ab69565-8b30-419e-83d6-2b96cdf2a02c,Anytime Fitness,Aspley,"Corner of Gympie road and Albany Creek Road, Brisbane",Aspley,QLD,4034,07 3263 1032,Open,,,,
c6e22dd1-d2bd-4ad9-8d46-e127e80c5ea0,Anytime Fitness,Bardon,63 Macgregor Terrace,Bardon,QLD,4065,07 33673690,Open,,,,
264b5fce-57af-49da-80f6-c372bdeb7e89,Anytime Fitness,Biloela,15 Gladstone Road,Biloela,QLD,4715,07 4992 2619,Open,,,,
1ac490b0-5a2d-4031-aed7-b0d899f701c8,Anytime Fitness,Bowen Hills,153 Campbell Street,Bowen Hills,QLD,4006,07 3252 1230,Open,,,,
6c473524-3943-435b-8ed0-3adae273bf06,Anytime Fitness,Brisbane,"175 Eagle Street, Located on river front, below Cafe Pacino",Brisbane,QLD,4000,07 3220 2295,Open,,,,
991ac87e-35f3-4766-8445-b9f471b8526a,Anytime Fitness,Browns Plains,"Shop I3, Village Square, 18 Commerce Drive",Browns Plains,QLD,4118,07 3800 2350,Open,,,,
6d86d998-57bd-446e-a9f2-264859953195,Anytime Fitness,Buderim,"Bottletrees Shopping Village, 9 Goshawk Boulevard",Buderim,QLD,4556,07 5450 1732,Open,,,,
e0114bca-e9be-4cf1-9412-f804bd73c769,Anytime Fitness,Bundaberg,107 Takalvan Street,Bundaberg,QLD,4670,07 4154 2616,Open,,,,
c7684b54-57b0-4ca5-a10d-5ebf106918b5,Anytime Fitness,Burpengary,"Shop 4, 185-187 Station Rd",Burpengary,QLD,4505,07 3888 6863,Open,,,,
6cc8ccf1-2569-4733-99fd-49544c93353a,Anytime Fitness,Caboolture,1 - 21 Pettigrew Street,Caboolture,QLD,4510,07 5428 3049,Open,,,,
503627d1-2b09-4838-9395-77b3ea10c23e,Anytime Fitness,Cairns,"Raintrees Shopping Centre, Cnr of Alfred & Koch Streets",Cairns,QLD,4870,07 4032 1240,Open,,,,
fc521a4f-6589-442a-aaf5-9ee5bc9e15ff,Anytime Fitness,Capalaba,1-7 Finucane Road,Capalaba,QLD,4157,07 3245 7000,Open,,,,
cbc284ce-c3db-437e-8f5f-2109d698111e,Anytime Fitness,Chermside,"Shop 4-5, 392 Hamilton Road",Chermside,QLD,4032,07 3350 2010,Open,,,,
2bf97d18-35d8-4f45-8f28-8bfe9cd16800,Anytime Fitness,Cleveland,33 Shore Street West,Cleveland,QLD,4163,0417 161 726,Open,,,,
492229ab-627e-4073-9b60-d5808004c49d,Anytime Fitness,Clontarf,"Shops 11-14, 9 Elizabeth Ave",Clontarf,QLD,4019,07 3284 0708,Open,,,,
31828df3-a4a4-4f54-87bf-df85d8bc18a8,Anytime Fitness,Cooroy,13 Kauri Street,Cooroy,QLD,4563,07 5447 6488,Open,,,,
94027ed2-2870-4199-ac99-9485466dfe6a,Anytime Fitness,Cornubia,8 Gleneagles Avenue,Cornubia,QLD,4130,07 3287 7801,Open,,,,
ffd90315-b4a1-4152-90d2-c6fba6b98229,Anytime Fitness,Currimundi,786 Nicklin Way,Currimundi,QLD,4551,07 5341 8120,Open,,,,
7b8e2de4-00b0-4807-8bc7-fc085fd4dcb5,Anytime Fitness,Deeragun,"Lot 2, Northside Square, Deeragun Road and Bruce Highway",Deeragun,QLD,4818,07 4751 9711,Open,,,,
66e96b9e-6df6-4b6f-adf5-5d85713a935b,Anytime Fitness,Enoggera,206 Samford Road,Enoggera,QLD,4051,07 3855 8636,Open,,,,
70584000-fb87-45f3-9516-265b54bee4b7,Anytime Fitness,Gladstone,"Shop 47-48, Gladstone Central Shopping Centre 45-69 Dawson Road",Gladstone,QLD,4680,07 4976 9130,Open,,,,
0473a0ce-ef0f-4413-a0f3-0be4063db647,Anytime Fitness,Gympie,"Unit 101, Cullinanes Plaza 104 Mary Street",Gympie,QLD,4570,07 5483 8563,Open,,,,
d802c11f-cb66-4b75-9bbc-fb9804df4eb0,Anytime Fitness,Hamilton,"Shop 3 Riverside Building, 2 Harbour Road",Hamilton,QLD,4007,07 3607 0037,Open,,,,
086f5f95-5fd0-47d1-ab3e-f9afbfd8f2c2,Anytime Fitness,Helensvale,"Shop 24a Helensvale Plaza, 12 Sir John Overall Drive",Helensvale,QLD,4212,07 5519 3722,Open,,,,
f30ce842-820c-4c36-9d24-41d368122bf5,Anytime Fitness,Hervey Bay,2/129 Boat Harbour Drive,Hervey Bay,QLD,4655,07 4191 4770,Open,,,,
71f54e8d-dfcd-435f-b79b-c5e2a93bd2c3,Anytime Fitness,Hope Island,"Hope Island Central, 340 Hope Island Road",Hope Island,QLD,4212,07 5510 9573,Open,,,,
4d8dfc66-220f-4dec-9c76-cd9ffed24275,Anytime Fitness,Kallangur,1473 Anzac Avenue,Kallangur,QLD,4503,07 3385 0222,Open,,,,
7b3b04f7-6e46-4fc8-92f7-88245099b922,Anytime Fitness,Keperra,"Shop HO3, Great Western Super Centre 1028 Samford Road",Keperra,QLD,4054,07 3851 3648,Open,,,,
9ad946a7-d592-4d92-b9a8-04a1dba9443f,Anytime Fitness,Labrador,"Shop 9, 138 Brisbane Road",Labrador,QLD,4215,07 5563 7722,Open,,,,
6936804a-8094-49ef-93db-6a6c238ecb62,Anytime Fitness,Lawnton,774 Gympie Road,Lawnton,QLD,4501,07 3285 3395,Open,,,,
11515a45-5cb1-4220-a942-8533d2ea5925,Anytime Fitness,Logan,"Shop U3, 38 -74 Wembley Rd",Logan,QLD,4114,07 3209 5370,Open,,,,
9c6f3cab-740b-49c1-a8cf-89f4e1ca88b9,Anytime Fitness,Macgregor,"T4, 531 Kessels Road",Macgregor,QLD,4109,07 3422 1076,Open,,,,
4ed02a0a-1303-475f-80ce-27ec6eba7ae2,Anytime Fitness,Mackay,54 Victoria Street,Mackay,QLD,4740,07 4944 0845,Open,,,,
f5618509-3c2d-474e-acdf-e5080903dabd,Anytime Fitness,Maroochydore,72 Kingsford Smith Parade,Maroochydore,QLD,4558,07 5479 0133,Open,,,,
80ea3680-0053-4ac7-81b6-152fe5feea28,Anytime Fitness,Maryborough,1/312 Alice Street,Maryborough,QLD,4650,07 4122 2690,Open,,,,
32bb01cb-404c-4e9b-a38b-6f1dd5f8b5bd,Anytime Fitness,Miami,2019 Gold Coast Highway,Miami,QLD,4220,0452 422 019,Open,,,,
a3041be0-7c36-431d-aa30-42ea8c50502c,Anytime Fitness,Mount Isa,2 West Street,Mount Isa,QLD,4825,07 4749 0774,Open,,,,
fb548aa7-4257-4bad-b459-7038189f8824,Anytime Fitness,Murarrie,"Unit 16, Metro Complex 8 Metroplex Ave",Murarrie,QLD,4172,07 3395 8821,Open,,,,
28281e63-4769-4900-9caf-ed1dbc631539,Anytime Fitness,Nambour,91 Howard Street,Nambour,QLD,4560,07 5441 5871,Open,,,,
f09231a5-8687-424f-8939-878cd1246a82,Anytime Fitness,Noosa,"Shop 1038, Noosa Civic Shopping Centre 28 Eenie Creek Road",Noosa,QLD,4566,07 5440 5787,Open,,,,
6cf16305-d2cf-4ad6-ac21-0e94f3dd62e9,Anytime Fitness,Ormeau,"Unit 9, First Floor, 19 Peachey Road",Ormeau,QLD,4208,07 5549 1549,Open,,,,
6dd8b138-4e88-4462-a89b-edb88ec10ff4,Anytime Fitness,Richlands,"Suite 201 Richlands Plaza Business Centre, 32 Old Progress Road",Richlands,QLD,4077,07 3372 1202,Open,,,,
9c4f7057-92c6-4ee4-908e-3732e5934c53,Anytime Fitness,Rockhampton,,Rockhampton,QLD,,,Coming Soon,,,,
5e30a8ea-4cee-48a7-9b8a-63a64819ede8,Anytime Fitness,Rothwell,"The Zone, 743-763 Deception Bay Road",Rothwell,QLD,4022,07 3204 9032,Open,,,,
39f5f4cf-6c40-4aa3-8571-601b2f301ef0,Anytime Fitness,Salisbury,655 Toohey Road,Salisbury,QLD,4107,07 3275 3914,Open,,,,
3716826f-0610-4867-931d-c323cc69a238,Anytime Fitness,Southport,45-49 Nind Street,Southport,QLD,4215,07 5679 3333,Open,,,,
d21ebb9d-4089-4573-8302-d3ca25291df1,Anytime Fitness,Springfield Lakes,"Shop 4, 1 Springfield Lakes Boulevard Spring Lake Metro",Springfield Lakes,QLD,4300,07 3381 8856,Open,,,,
e36232be-885b-456b-814b-7f0da79628ee,Anytime Fitness,Stones Corner,85 Old Cleveland Rd,Stones Corner,QLD,4120,07 3394 1891,Open,,,,
38a29e65-3830-48d9-abb3-f20a990a4386,Anytime Fitness,Toombul,"Shop 168/9 Centro Toombul, 1015 Sandgate Road",Toombul,QLD,4012,07 3630 4088,Open,,,,
589ac7ce-f251-4e7e-a04d-32d8e6b6e07f,Anytime Fitness,Toowoomba,323 Ruthven Street,Toowoomba,QLD,4350,07 4613 1177,Open,,,,
1329294f-b636-41d0-8f51-d6066c9072f9,Anytime Fitness,Townsville,162 Sturt Street,Townsville,QLD,4810,07 4771 2090,Open,,,,
b20a6d3d-ade1-4e1c-b4d8-9f21cf9d6d0b,Anytime Fitness,Townsville (Domain Central),103 Duckworth Street,Townsville,QLD,4814,07 4728 6685,Open,,,,
454f6be6-9914-441c-884b-90bb0700f0c3,Anytime Fitness,Upper Coomera,90 Days Road,Upper Coomera,QLD,4209,07 5502 7055,Open,,,,
91210183-58e9-4cc1-abbe-a781444765b0,Anytime Fitness,Warwick,110 - 114 Grafton Street,Warwick,QLD,4370,07 46617814,Open,,,,
c654425b-f330-483c-899c-f03786085d95,Anytime Fitness,Waterford West,"Shop 10, 42-48 Bourke St Waterford Village",Waterford West,QLD,4133,07 3200 3052,Open,,,,
5b29cb1c-64db-4ee9-b915-ca9ee6bbc10d,Anytime Fitness,West End,331 Montague Road,West End,QLD,4101,07 3846 1126,Open,,,,
e7a0a861-a532-405f-ba4d-e45fa28206b0,Anytime Fitness,Aberfoyle Park,130-150 Hub Drive,Aberfoyle Park,SA,5159,08 8270 1022,Open,,,,
57dc732b-1449-4b74-a25a-17374fb3fc48,Anytime Fitness,Adelaide (James Place),27 James Place,Adelaide,SA,5000,08 8212 7643,Open,,,,
9f948c63-367c-46fe-af46-fef0a5ded2ab,Anytime Fitness,Adelaide,251a Morphett St,Adelaide,SA,5000,08 8231 7386,Open,,,,
a91df960-f524-4f94-9e30-5fe59b526ddb,Anytime Fitness,Aldinga,"Aldinga Central Shopping Centre, Rowley Road",Aldinga,SA,5173,08 8557 8995,Open,,,,
031cd8b5-037a-4401-b0b4-513e498a330e,Anytime Fitness,Angaston,71 Murray Street,Angaston,SA,5353,08 8564 3555,Open,,,,
2b0364b7-4080-43bc-93e1-552090f8777b,Anytime Fitness,Athelstone,"Shop 20-21, 320 Gorge Road",Athelstone,SA,5076,08 8336 2027,Open,,,,
2f180cb9-1777-43c1-98a7-193945f4893e,Anytime Fitness,Black Forest,"Shop 2-3, 715-727 South Road",Black Forest,SA,5035,08 8351 1531,Open,,,,
fa3e5710-1632-4b08-b466-d40a53f0f131,Anytime Fitness,Blackwood,365 Shepherds Hill Road,Blackwood,SA,5063,08 8278 2709,Open,,,,
1377175c-6de7-450f-b00b-293e07d84a2a,Anytime Fitness,Brighton,"360 Brighton Road, Hove",Brighton,SA,5048,08 8296 7233,Open,,,,
06225025-4451-45f3-b1e6-04bad53db6c3,Anytime Fitness,Campbelltown,519 Lower North East Road,Campbelltown,SA,5074,08 8165 3100,Open,,,,
110df2a6-e097-48ca-a2ec-1761724b92e8,Anytime Fitness,Elizabeth,1 Philip Highway,Elizabeth,SA,5112,08 8252 0213,Open,,,,
d23636e2-e5d9-4336-989a-e3caa401ea92,Anytime Fitness,Findon,205-209 Grange Road,Findon,SA,5023,08 8345 0986,Open,,,,
50ba5b59-9b38-40ba-bc78-13a2a0708c49,Anytime Fitness,Fulham Gardens,5 Irene Avenue,Fulham Gardens,SA,5024,08 8356 7670,Open,,,,
10c8ff2a-3fdd-41c0-8079-8e09ba9490b9,Anytime Fitness,Gawler,"Level 1, 1 Commercial Lane",Gawler,SA,5118,08 8522 1144,Open,,,,
45d913ba-5a58-4e91-9aa2-5d376502f73a,Anytime Fitness,Gawler Green,"Gawler Green Shopping Centre, 491 Main North Road",Gawler Green,SA,5116,08 8522 1196,Open,,,,
d8514fff-494b-4030-a509-d454b1766d2e,Anytime Fitness,Glenelg,115 Jetty Road,Glenelg,SA,5045,08 8294 3669,Open,,,,
9f8780e8-1285-49c6-96a4-5e68b02b6636,Anytime Fitness,Golden Grove,307 The Golden Way,Golden Grove,SA,5125,08 8251 5938,Open,,,,
61d79727-222e-4cdd-912b-18811fc59d18,Anytime Fitness,Greenacres,13-15 Fosters Rd,Greenacres,SA,5086,08 8261 1505,Open,,,,
abf597c4-79b5-49b1-b7bd-612851968b95,Anytime Fitness,Kilkenny,10 - 14 Regency Road,Kilkenny,SA,5009,08 8244 0908,Open,,,,
f69cd866-9e9f-4271-87c3-f1067f3f3e1a,Anytime Fitness,Melrose Park,Unit 1 1075 South Road,Melrose Park,SA,5039,08 8299 0250,Open,,,,
0a6a7f8d-dfd4-4596-9d88-198ab81c93f9,Anytime Fitness,Mile End,"164 Henley Beach Road, (Opposite Foodland)",Mile End,SA,5031,08 8351 9069,Open,,,,
32eeae1d-9ac9-4765-95bf-bb0eda6b450e,Anytime Fitness,Mitchell Park,Shop 10 - 941-945 Marion Road,Mitchell Park,SA,5043,08 8358 2117,Open,,,,
e59978f2-8daf-4a7e-8996-a80d1f8f4c19,Anytime Fitness,Modbury,32 Smart Road,Modbury,SA,5092,08 8265 5060,Open,,,,
6a5468fe-376f-4d45-817a-2ec41db3aa94,Anytime Fitness,Mount Barker,20 Druids Avenue,Mount Barker,SA,5251,08 8391 4162,Open,,,,
a107d046-faec-42a7-9a98-3553d943001b,Anytime Fitness,Mount Gambier,"Shop 34, Mount Gambier Marketplace 182-248 Penola Road",Mount Gambier,SA,5290,08 8723 2962,Open,,,,
2d61f282-46e1-44dc-bcab-e2eb3fd0e9fb,Anytime Fitness,Munno Para,"Munno Para Shopping City, Shop 96 - 600 Main North Rd",Munno Para,SA,5114,08 8254 8156,Open,,,,
b5474658-f538-4f41-ae03-d9af7280a224,Anytime Fitness,Munno Para West,234 Curtis Road,Munno Para West,SA,5115,08 8288 9107,Open,,,,
0c4b5182-fbd8-44e8-810b-6d3a194b6e96,Anytime Fitness,Murray Bridge,"Level 1, 17 - 19 Adelaide Road",Murray Bridge,SA,5253,08 8531 3847,Open,,,,
cbe32593-e7f7-44ad-a077-ad43f13b8542,Anytime Fitness,Noarlunga,"Shop ES01, Federation Centres Colonnades Goldsmith Drive (Carpark entry adjacent Dan Murphy's)",Noarlunga,SA,5168,08 8186 0942,Open,,,,
a6502556-407f-48b9-887d-929d0e6f0215,Anytime Fitness,Norwood,253 Magill Road,Norwood,SA,5069,08 8332 5011,Open,,,,
f35d77a0-df6f-4cea-9393-0e4249382727,Anytime Fitness,Para Hills,"Shop 1A, 519 Bridge Road Para Hills Shopping Centre",Para Hills,SA,5096,08 8250 0933,Open,,,,
26e9e7ba-c64d-4da8-aed4-1d5dd736dacd,Anytime Fitness,Parabanks,68 John Street,Parabanks,SA,5108,08 8258 9862,Open,,,,
c88c5926-c511-4c16-abe7-edc4423196bc,Anytime Fitness,Parafield Gardens,3/237 Martins Road,Parafield Gardens,SA,5107,08 8283 0680,Open,,,,
16134647-ce86-4206-8540-35717d594907,Anytime Fitness,Port Adelaide,110-112 Commercial Rd,Port Adelaide,SA,5015,08 8240 1227,Open,,,,
06d0452d-68cb-475a-b1b0-4c0c1828a8b9,Anytime Fitness,Port Augusta,"Shop 4 - 8 Northern Gateway Shopping Centre, Cnr Jervois & Marryatt Roads",Port Augusta,SA,5700,08 8641 1070,Open,,,,
88d8405e-9121-47ab-a379-432ec72e02c2,Anytime Fitness,Port Lincoln,78 Tasman Tce,Port Lincoln,SA,5606,08 8682 1033,Open,,,,
63ab7d08-123f-425b-857d-3573dba8e57f,Anytime Fitness,Prospect,"Churchill Centre, 390 Churchill Road",Prospect,SA,5082,08 8262 9073,Open,,,,
a0af79ee-2b45-476c-9d83-cf7fe8d437f3,Anytime Fitness,Salisbury Downs,"155 Winzor Street, Centro Hollywood Bulky Goods",Salisbury Downs,SA,5108,08 8182 6701,Open,,,,
ae4ffeb2-9ab5-45d9-9534-72b6ef4319b2,Anytime Fitness,Seaford,"Seaford Shopping Centre, 108 Commercial Road",Seaford,SA,5169,08 8327 0707,Open,,,,
894a9e0f-db25-46a1-b0f7-1859699eba86,Anytime Fitness,Unley,14 Arthur Street,Unley,SA,5061,08 8271 4144,Open,,,,
1ed4c1de-2eff-4955-a713-79dfabbb7bf7,Anytime Fitness,Victor Harbor,75 - 77 Victoria Street,Victor Harbor,SA,5211,08 7522 4583,Open,,,,
7aad5436-cc90-4aa6-8d48-2253609b05b9,Anytime Fitness,Walkerville,Crn Walkerville Tce and Smith Street (117 Walkerville Tce),Walkerville,SA,5081,0499 005 001,Open,,,,
96ff9c95-d01f-4ec7-8340-5fa31b6d6a22,Anytime Fitness,Whyalla,"Westland Shopping Centre, McDouall Stuart Ave",Whyalla,SA,5608,08 8645 3317,Open,,,,
3fa1d6cf-113a-45c2-969c-0024cf662200,Anytime Fitness,Woodcroft,10 / 217 Pimpala Rd,Woodcroft,SA,5162,08 8381 3770,Open,,,,
6491e5d2-f1aa-4cf7-996e-79cc8acf5e61,Anytime Fitness,Kingston,"Channel Court Shopping Centre, 29 Channel Hwy",Kingston,TAS,7050,03 6229 1484,Open,,,,
3b353772-7dda-42bf-b2bf-13aaacc945d1,Anytime Fitness,Launceston,2/41 York Street,Launceston,TAS,7250,03 6331 5104,Open,,,,
ef91566c-04fb-465e-87f7-643f87aad7e4,Anytime Fitness,Sandy Bay,19 Magnet Court,Sandy Bay,TAS,7005,03 6286 7782,Open,,,,
62f3be53-f58d-41bc-8da6-4ee41793586e,Anytime Fitness,Alphington,738 Heidelberg Road,Alphington,VIC,3078,03 9499 6162,Open,,,,
cc0f96b9-4486-4232-8b8a-56278fa90a00,Anytime Fitness,Altona,84 Pier Street,Altona,VIC,3018,03 9398 6347,Open,,,,
9351b95c-f306-460c-ac56-fabb107360b5,Anytime Fitness,Ararat,35 Baird Street,Ararat,VIC,3377,0438 106 386,Open,,,,
1c786398-2367-421a-9949-cca79b034312,Anytime Fitness,Armadale,,Armadale,VIC,,,Coming Soon,,,,
6b00e984-3656-40e0-a0ea-29bd8178c2a8,Anytime Fitness,Bacchus Marsh,"Shop 72, Bacchus Marsh Village Shopping Centre Main Street and Young Street",Bacchus Marsh,VIC,3340,03 4367 7006,Open,,,,
14a98527-5a1c-46fe-81e7-5f228b9506f4,Anytime Fitness,Ballarat,"Maxi Foods Shopping Centre, 601-603 LaTrobe Street",Ballarat,VIC,3350,03 5336 3596,Open,,,,
87f2d9a4-4e37-4340-804d-8ced7e79889c,Anytime Fitness,Balwyn,"Level 2, 379 Whitehorse Rd",Balwyn,VIC,3103,03 9836 4448,Open,,,,
25a822ec-1e02-444a-a5cc-32c6bd923c9a,Anytime Fitness,Bayswater,2/31 Scoresby Road,Bayswater,VIC,3153,03 9720 1518,Open,,,,
3d1cbe01-6793-46e9-a974-ecc493acdcdf,Anytime Fitness,Bell Post Hill,"Level 1, Bellpost Shopping Centre 290-306 Anakie Road",Bell Post Hill,VIC,3214,03 5275 4970,Open,,,,
fc49be9d-7830-4d83-b0e5-d916fe8434bb,Anytime Fitness,Benalla,"Lot 2, 78 Sydney Road",Benalla,VIC,3672,03 5762 7041,Open,,,,
55a7b966-4618-4f27-ae68-efe6028e72ef,Anytime Fitness,Berwick,"Eden Rise Village, 1 O'Shea Road",Berwick,VIC,3806,03 8786 8311,Open,,,,
a3eed097-466e-42e5-8fda-4ad092f79ff5,Anytime Fitness,Box Hill North,"G42-44 Upper Level, Centro Box Hill 17 Market Street",Box Hill North,VIC,3128,03 9897 1394,Open,,,,
19ac83bb-e654-4d0a-9605-9648e6458385,Anytime Fitness,Brighton,"Ground Floor, 643 Nepean Highway",Brighton,VIC,3187,03 9593 3460,Open,,,,
82d875e1-9bab-4193-bea4-615ec91f0fb5,Anytime Fitness,Brunswick,2 Percy Street,Brunswick,VIC,3056,03 9380 5924,Open,,,,
fa1ed38c-99a8-4911-bc7c-b7086ecd567c,Anytime Fitness,Burwood,85 Burwood Highway,Burwood,VIC,3125,03 9830 6888,Open,,,,
85f3e753-8277-44d6-b1d6-0f2a4d2d721d,Anytime Fitness,Carlton,"Tenancy 2, SQ Retail, 551 Swanston Street Carlton",Carlton,VIC,3053,0432 577 961,Open,,,,
193b7ec0-e67f-4e3f-b2c8-e3090f1804ce,Anytime Fitness,Carnegie,"Level 1, 1227 Glen Huntly Road",Carnegie,VIC,3163,03 9571 4609,Open,,,,
44c6939a-cf8a-4f68-8894-b1cd1d711c53,Anytime Fitness,Caroline Springs,2 Lake Street,Caroline Springs,VIC,3023,03 8390 5706,Open,,,,
66095aed-c569-4deb-ad49-45f1e686365e,Anytime Fitness,Carrum Downs,100 Hall Road,Carrum Downs,VIC,3201,0438 481 567,Open,,,,
ae2a20d5-ba53-4767-84a0-32930ed2fe9e,Anytime Fitness,Chelsea,426 Nepean Highway,Chelsea,VIC,3196,03 9772 2225,Open,,,,
40b0b164-3e87-4cd2-ae35-63feab176e06,Anytime Fitness,Cheltenham,4/4-10 Jamieson Street,Cheltenham,VIC,3192,03 9585 0004,Open,,,,
e3836893-6eb0-49b8-a07e-23a46192d05a,Anytime Fitness,Coburg,114 Bell Street,Coburg,VIC,3058,03 9354 2330,Open,,,,
4665192a-35c2-4e61-aa51-93d6f0a76eda,Anytime Fitness,Collingwood,164 Wellington Street,Collingwood,VIC,3067,03 9417 3161,Open,,,,
c5994498-cef8-4b0e-a3bc-90773b504d5c,Anytime Fitness,Craigieburn,"Suite 2, Level 1 Central Suites Craigieburn Central Corner of Windrock Ave & Central Park Ave",Craigieburn,VIC,3064,03 9308 2303,Open,,,,
0163ac38-575d-4963-a903-3ab012b43752,Anytime Fitness,Cranbourne,125 high street,Cranbourne,VIC,3997,03 5995 3465,Open,,,,
28592767-0eab-433a-96e9-f50f58e92b96,Anytime Fitness,Croydon,198 Mount Dandenong Road,Croydon,VIC,3136,03 9722 9857,Open,,,,
f23b15e8-b07a-49a5-af2d-948d16e1171c,Anytime Fitness,Dandenong,255 Lonsdale Street,Dandenong,VIC,3175,03 9792 2632,Open,,,,
48973e01-2481-4fa3-a407-350cecdaa5d0,Anytime Fitness,Dandenong North,64 Outlook Drive,Dandenong North,VIC,3175,03 9790 0655,Open,,,,
fa34b139-ffd1-4280-a893-55ac277b48cd,Anytime Fitness,Diamond Creek,75-77 Main Hurstbridge Road,Diamond Creek,VIC,3089,03 8418 6127,Open,,,,
93c5e0ad-5a74-4be1-96c2-120a9ca80153,Anytime Fitness,Doncaster,"Level 1, 632-640 Doncaster Road",Doncaster,VIC,3108,03 9840 7018,Open,,,,
bd8f1c97-c24b-434b-a1cf-c3a42815985f,Anytime Fitness,Doreen,107 Hazel Glen Drive,Doreen,VIC,3754,03 9715 2033,Open,,,,
fd04960b-dd69-4e65-9ce2-51fe1c48e5fb,Anytime Fitness,Drysdale,"Level 1, 15 Hancock Street",Drysdale,VIC,3222,03 5251 2158,Open,,,,
ef5a69ed-da20-4355-bcfd-656fdda994ee,Anytime Fitness,Eltham,3/20 Arthur Street,Eltham,VIC,3095,0497 992 880,Open,,,,
e5b2de09-9516-4ecd-ac49-4d7648b90bc2,Anytime Fitness,Epping,"Shop 2, 58 Childs Road",Epping,VIC,3076,03 8401 4926,Open,,,,
55542466-afeb-46d1-b457-5cff93c98d99,Anytime Fitness,Essendon,23 Keilor Road,Essendon,VIC,3040,03 9374 2001,Open,,,,
e0b78bdb-6292-437b-bf6c-416afa4e8583,Anytime Fitness,Ferntree Gully,10A / 1841-1845 Ferntree Gully Road,Ferntree Gully,VIC,3156,03 97582803,Open,,,,
4d726676-e73a-47cc-b0e6-d259bf71e768,Anytime Fitness,Footscray,"18 Albert Street, T2, Level 2A, Footscray Plaza",Footscray,VIC,3011,03 9362 0068,Open,,,,
9a415114-7491-4b0a-b813-8b0e72741fd7,Anytime Fitness,Forest Hill,21-25 Mahoneys Road,Forest Hill,VIC,3131,03 9877 2113,Open,,,,
36a776b0-d572-4af8-9e52-8a1e27bca242,Anytime Fitness,Frankston,"Level 1, 443 Nepean Hwy",Frankston,VIC,3199,03 9770 2970,Open,,,,
c60fc8a0-7cba-4fdb-be46-e541bb759521,Anytime Fitness,Geelong,"Westfield Geelong, 95-97 Malop Street",Geelong,VIC,3218,03 5229 4896,Open,,,,
8bf346e8-5a27-4416-bab0-ff3d54536081,Anytime Fitness,Glenroy,824A Pascoe Vale Road,Glenroy,VIC,3046,03 9306 7658,Open,,,,
8536b5ed-7a8d-48e5-ad16-4dc04c202380,Anytime Fitness,Greensborough,"Shop L05-001, Greensborough Plaza Shopping Centre 25 Main Street",Greensborough,VIC,3088,03 9435 0010,Open,,,,
25a1d777-eca3-4806-bf4d-684547434669,Anytime Fitness,Grovedale,40 Essington Street,Grovedale,VIC,3216,03 5244 2294,Open,,,,
2da35bf4-d4fd-4a25-a6cf-2d1538aafec4,Anytime Fitness,Hastings,77 High Street,Hastings,VIC,3915,03 5979 8237,Open,,,,
6eb1f38c-e7d4-47d8-ab65-8aa056f4e447,Anytime Fitness,Hawthorn,152 Burwood Road,Hawthorn,VIC,3122,03 9818 8884,Open,,,,
b479c262-a469-432b-887a-febcdd607303,Anytime Fitness,Heidelberg,163-165 Burgundy Street,Heidelberg,VIC,3084,03 9458 4888,Open,,,,
7d604dac-36bf-4dce-8214-fc19e2fab6e9,Anytime Fitness,Highton,"4-46 Province Boulevard, Cnr Province Boulevard and Stoneleigh Crescent)",Highton,VIC,3216,03 5241 7109,Open,,,,
005c34f7-920f-46bb-91fd-bff95e0d418c,Anytime Fitness,Hoppers Crossing,2/76 Old Geelong Road,Hoppers Crossing,VIC,3029,03 9749 1577,Open,,,,
30f2b6b0-5f17-4e57-81a5-b9ddc44bf3c6,Anytime Fitness,Horsham,47- 49 Pynsent Street,Horsham,VIC,3400,03 5381 2035,Open,,,,
669ba1fc-29e3-492e-87e7-6f606d41b77e,Anytime Fitness,Kangaroo Flat,233-249 High Street,Kangaroo Flat,VIC,3555,03 5447 3526,Open,,,,
3fda0048-ee34-44ab-8a1b-91ff5180c556,Anytime Fitness,Keilor Downs,"80 Taylors Road, Keilor Shopping Centre",Keilor Downs,VIC,3038,03 9364 5251,Open,,,,
5746ad78-1db1-47bf-bf1a-f9534d5e713d,Anytime Fitness,Keilor East,"Level 1, Shop 48 Milleara Shopping Centre 235 Milleara Rd",Keilor East,VIC,3033,03 9325 4988,Open,,,,
c277c938-af26-44a6-895d-a5c4d6d8656d,Anytime Fitness,Kennington,150-158 Condon Street,Kennington,VIC,3550,03 5442 6634,Open,,,,
0b9fcd7a-0ea8-4ccc-8734-53a894c439d3,Anytime Fitness,Kew,599 High Street,Kew,VIC,3101,03 9859 4444,Open,,,,
4fb57b65-47b2-493e-9d90-fb283ae9a4ec,Anytime Fitness,Langwarrin,"Shop 11-14 Langwarrin Plaza, 385 Cranbourne-Frankston Road",Langwarrin,VIC,3910,03 8790 8886,Open,,,,
c95e7697-0088-4226-bcb1-30a949ad18c8,Anytime Fitness,Lara,"Shop 14-16, 120 Station Lake Road",Lara,VIC,3212,03 5282 5665,Open,,,,
d584273f-eb9e-441f-9719-9fee34162320,Anytime Fitness,Lynbrook,,Lynbrook,VIC,,,Coming Soon,,,,
8bb7ff10-64b5-4981-bd9d-144b3a883448,Anytime Fitness,Manifold Heights,103 Shannon Avenue,Manifold Heights,VIC,3218,03 5222 5137,Open,,,,
ff691b31-e33f-4838-9799-a0844794f587,Anytime Fitness,Melbourne,280 Queen Street,Melbourne,VIC,3000,03 9642 0808,Open,,,,
1b885ea4-0aad-43ad-aa58-6114308bb085,Anytime Fitness,Melton,"Unit 5b, 72-84 High St",Melton,VIC,3337,03 99715272,Open,,,,
782fde11-e4a0-4dba-bfd7-5c707db38b0a,Anytime Fitness,Mill Park,,Mill Park,VIC,,,Coming Soon,,,,
b0366673-4463-4bba-b15c-bebd43b083c2,Anytime Fitness,Mitcham,"Level 1, 517 Whitehorse Road",Mitcham,VIC,3132,03 9095 8888,Open,,,,
1dfc2ebd-00ae-4a19-9d4a-86658f281462,Anytime Fitness,Moonee Ponds,"Shop 38, 683 Mt. Alexander Road",Moonee Ponds,VIC,3039,03 9375 7938,Open,,,,
76898123-956e-4525-835d-cf3eaf92da10,Anytime Fitness,Moorabbin,854 Nepean Highway,Moorabbin,VIC,3188,03 9553 4001,Open,,,,
87e6ab97-cdf6-4303-b2b4-2b139d99bb73,Anytime Fitness,Mordialloc,511-513 Main Street,Mordialloc,VIC,3195,03 9587 3771,Open,,,,
30805d06-3bea-4303-a2fb-82d0db264d35,Anytime Fitness,Mornington,107 Main Street,Mornington,VIC,3931,03 5973 6667,Open,,,,
521109e0-1a14-4c9e-8dc8-54e5bdee2c70,Anytime Fitness,Mount Clear,"Unit 5 Midvale Shopping Centre, 1174 Geelong Road",Mount Clear,VIC,3350,03 5330 3760,Open,,,,
7e6fb0fa-a14f-46cf-896f-253b8a2484b9,Anytime Fitness,Mount Waverley,619 High Street,Mount Waverley,VIC,3149,03 98020143,Open,,,,
de26585d-8f35-452b-a2dd-446d05136c97,Anytime Fitness,Noble Park,,Noble Park,VIC,,,Coming Soon,,,,
3a613fde-3d5a-4534-b861-7b196c955d1a,Anytime Fitness,Pakenham,50 - 54 John Street,Pakenham,VIC,3810,03 5941 9648,Open,,,,
af8392fd-5cbc-4686-abb5-44dacc664ca1,Anytime Fitness,Point Cook,Suite 701 / 1 Main Street,Point Cook,VIC,3030,03 9395 4149,Open,,,,
298fb34b-a36d-45ea-bd9e-3cb7c15aae60,Anytime Fitness,Port Melbourne,4/2 Phillip Court,Port Melbourne,VIC,3207,03 9646 5000,Open,,,,
52b49e46-141e-49de-aa9e-c477c16fd214,Anytime Fitness,Prahran,16 Grattan Street,Prahran,VIC,3181,03 95294443,Open,,,,
d92d0cdc-52ed-45ff-9a99-dd9b16497fa2,Anytime Fitness,Preston,251 - 253 Hight Street,Preston,VIC,3072,03 9480 0011,Open,,,,
0e0cea6f-091c-46f6-b4cb-7ed4094f3040,Anytime Fitness,Reservoir,,Reservoir,VIC,,,Coming Soon,,,,
b410211f-2a76-48af-bee1-b940ffa65a64,Anytime Fitness,Richmond,"8/53 Coppin Street, Enter via 71 Abinger Street",Richmond,VIC,3121,03 9429 7218,Open,,,,
cf220983-dddb-42a8-9a23-812cadb1d4a9,Anytime Fitness,Ringwood,263 Maroondah Highway,Ringwood,VIC,3134,03 9870 1007,Open,,,,
39fdb979-fc34-49e4-98dc-0732d7d65e7a,Anytime Fitness,Ringwood North,"Shop 11A, North Ringwood Shopping Centre Corner Warrandyte and Oban Roads North",Ringwood North,VIC,3134,03 9876 1973,Open,,,,
99f9c956-ab6f-4a88-b989-3da97b6af5cc,Anytime Fitness,Rosebud,1253-1255 Point Nepean Road,Rosebud,VIC,3939,03 5981 1002,Open,,,,
4f02ac20-7ef1-4752-a41c-5d434861dca0,Anytime Fitness,Rowville,"Unit 103-1090, Wellington Road",Rowville,VIC,3178,03 9755 5330,Open,,,,
61067b0c-8386-4d6d-ab96-9524d325018e,Anytime Fitness,Roxburgh Park,250 Somerton Road,Roxburgh Park,VIC,3064,03 9308 9834,Open,,,,
52aaba11-2a31-4ae1-920d-65d68c8e8afe,Anytime Fitness,Sale,205 York Street,Sale,VIC,3850,03 51444 084,Open,,,,
0d13b13f-704d-4485-af5c-a418ff087d35,Anytime Fitness,Shepparton,"Tenancy 1, 60-62 Railway Parade",Shepparton,VIC,3630,03 5822 0206,Open,,,,
3e71f551-52d4-403f-b378-2ed2cf45aa2f,Anytime Fitness,Somerville,"Gymnasium Centro Somerville, 49 Eramosa Road West",Somerville,VIC,3912,03 59780002,Open,,,,
50a17725-97e7-4d6d-8d38-2a14c8a0c5b6,Anytime Fitness,South Melbourne,63-69 Market Street,South Melbourne,VIC,3205,03 9682 1453,Open,,,,
735dc5db-6c7f-47dc-904a-7808428eb6fe,Anytime Fitness,Springvale,273 Springvale Road,Springvale,VIC,3171,03 9548 5444,Open,,,,
63059db3-bbaf-4ecb-a030-9e97de2d266c,Anytime Fitness,St Kilda,2/161 Fitzroy Street,St Kilda,VIC,3182,03 9534 2469,Open,,,,
4757984e-f264-4249-8ce9-a6df56902727,Anytime Fitness,Sunbury,2 Horne Street,Sunbury,VIC,3429,03 8746 9166,Open,,,,
d0f97b41-5b96-4c3b-b51e-3826cdfac403,Anytime Fitness,Sunshine,"Sunshine Plaza, Shop T40 , 324-328 Hampshire Road",Sunshine,VIC,3020,03 9311 1020,Open,,,,
8b135cb2-ef17-409f-9eeb-99ac50515cb4,Anytime Fitness,Torquay,39 Baines Crescent,Torquay,VIC,3228,0401 751 051,Open,,,,
bf365225-3e9a-4dbb-8744-a102d5fff3cd,Anytime Fitness,Travancore,36-70 Mt Alexander Road,Travancore,VIC,3032,03 9376 6594,Open,,,,
99c7974e-5a1b-4483-aa30-17f5dee6b196,Anytime Fitness,Wangaratta,6 Handley Street,Wangaratta,VIC,3677,03 5722 2150,Open,,,,
2bfc79b3-7fcf-4619-baf3-c088b27d8bcd,Anytime Fitness,Warrnambool,"Shop 1, Woolworths Shopping Centre 1-9 Gateway Road",Warrnambool,VIC,3280,03 5560 5431,Open,,,,
a2e075c2-82ea-4836-8343-fca6a7a21119,Anytime Fitness,Watergardens,"Shop SC210, Watergardens Town Centre 399 Melton Highyway",Watergardens,VIC,3038,03 8361 5722,Open,,,,
36ada9b3-4b1c-4fc4-8bfc-7b9fa34da694,Anytime Fitness,Werribee,49 Synnot Street,Werribee,VIC,3030,03 9731 7934,Open,,,,
7b236447-df7e-4a99-b629-e3593058993a,Anytime Fitness,West Footscray,"Central West Shopping Centre, E2 & E3 Cnr Ashley Street & South Road",West Footscray,VIC,3019,03 9689 6400,Open,,,,
98528c96-6da1-4c63-9c5d-43ac9922632f,Anytime Fitness,Wodonga,"1A, Unit 2 Moorefield Park Drive",Wodonga,VIC,3690,02 6024 4455,Open,,,,
0d3754cd-e7a8-4dfa-8b45-44e2ba96e381,Anytime Fitness,Albany,"Unit 2, 319 Albany Highway",Albany,WA,6330,08 9847 4277,Open,,,,
a32b2f26-2a59-42fb-bd23-e8eacd9f72e1,Anytime Fitness,Applecross,761 Canning Highway,Applecross,WA,6153,08 9364 7397,Open,,,,
7e7c245e-c911-4a74-b1cf-8a4c0df70203,Anytime Fitness,Armadale,"Armadale Central Shopping Centre, Shop 2B, 10 Orchard Ave (enter off Third Rd)",Armadale,WA,6112,08 9399 6923,Open,,,,
af79d344-3818-4439-886b-e5b749faf3a4,Anytime Fitness,Australind,"10 The Promenade, Treendale Shopping Centre",Australind,WA,6233,08 9796 1567,Open,,,,
d66b194d-2787-4bb3-8b7a-3eddb082748a,Anytime Fitness,Balcatta,223 Wanneroo Road,Balcatta,WA,6021,0451 947957,Open,,,,
b76d94bd-1ae9-416e-b9f8-ad683c39d756,Anytime Fitness,Baldivis,"Level 1, 52 Goulburn Road",Baldivis,WA,6171,0449 264 141,Open,,,,
eca0b8e3-55d5-4556-9166-4efcf1b98d80,Anytime Fitness,Beldon,Unit 2/1 Gunter Grove,Beldon,WA,6027,08 9403 3112,Open,,,,
2a55d4a3-db8c-4d7e-89e0-cc954b11ad4c,Anytime Fitness,Belmont,"Unit 1, Belmont Ave & Fulham St",Belmont,WA,6984,08 9277 2490,Open,,,,
0732cbbf-2794-48a3-9d33-6442dcab94f2,Anytime Fitness,Bentley,1137 Albany Highway,Bentley,WA,6102,08 9258 3972,Open,,,,
b6170834-6a02-477f-85be-a00dafede977,Anytime Fitness,Bunbury,"Homemaker Centre (Down Lane); 42 Strickland Street, between Bunnings & Dick Smith",Bunbury,WA,6230,08 9721 7255,Open,,,,
244dbd56-7232-45c7-99d9-086956dd7334,Anytime Fitness,Butler,"Unit 2 / 2 Captiva Approach, Cnr Lukin Drive and Connolly Drive",Butler,WA,6036,08 9562 0462,Open,,,,
7500ddd4-165a-4be7-934b-f74a1cf434c6,Anytime Fitness,Canning Vale,"Unit 5B, 5 Hughes Street (Cnr Nicholson Road & Hughes Street)",Canning Vale,WA,6155,08 6253 8446,Open,,,,
2c0d6076-84f1-4fb2-89e6-f2c3b0c39424,Anytime Fitness,Currambine,1 Hobson Gate,Currambine,WA,6028,08 9304 0303,Open,,,,
74af6678-333f-44a1-85f4-bacc042966ee,Anytime Fitness,Ellenbrook,7 Locke Lane,Ellenbrook,WA,6069,08 6296 3045,Open,,,,
c6d906b6-adc5-4427-9f18-f0807b5860b4,Anytime Fitness,Fremantle,17 Queen Victoria St,Fremantle,WA,6160,08 9335 8872,Open,,,,
f922cb1b-605a-4860-91f7-214232343e6b,Anytime Fitness,Geraldton,208-210 North West Coastal Highway,Geraldton,WA,6530,08 9964 6845,Open,,,,
db46d00b-7c55-40a9-aac0-7f235ebfb739,Anytime Fitness,Girrawheen,"Newpark Shopping Centre, 64 Marangaroo Drive",Girrawheen,WA,6064,08 9343 4903,Open,,,,
01886448-2991-4f96-8dca-c9862c60ab26,Anytime Fitness,High Wycombe,Shop 14 120 Wittenoom Road,High Wycombe,WA,6057,08 9454 6622,Open,,,,
51c222fd-1174-4d21-a90b-658a5383fa0a,Anytime Fitness,Innaloo,"361 Scarborough Beach Rd, (Next to Caltex)",Innaloo,WA,6018,08 9204 1240,Open,,,,
54e8565d-491a-4960-aac6-589f6df534eb,Anytime Fitness,Jandakot,624 Karel Avenue,Jandakot,WA,6164,08 9417 3685,Open,,,,
e1d5ce33-86a3-4fa8-8243-ddf940a99519,Anytime Fitness,Kalgoorlie,2/141 Boulder Road,Kalgoorlie,WA,6430,08 9021 3911,Open,,,,
70aff0ce-3d29-4fac-a692-9e6aa03d9b81,Anytime Fitness,Kwinana,"4 Chisham Avenue, Kwinana Town Centre",Kwinana,WA,6167,08 9439 6006,Open,,,,
758ce89d-7205-4a99-a3f9-562d14aad2c8,Anytime Fitness,Malaga,"655 Marshall Road Unit 1, (Cnr of Iron St and Marshall Rd)",Malaga,WA,6090,08 9249 6555,Open,,,,
b04074e5-a3d2-4166-a6ec-a32c0991bf80,Anytime Fitness,Mandurah,"Unit 7, 8 Magenta Terrace (facing Mandurah Terrace)",Mandurah,WA,6210,08 9583 4715,Open,,,,
55c5eac6-c9ad-4009-813d-dde5c4cd6235,Anytime Fitness,Mandurah South,633 Old Coast Road,Mandurah South,WA,6210,08 9534 4495,Open,,,,
8c19bc1e-82a6-460a-a0c8-a2399901446b,Anytime Fitness,Midvale,367 Great Eastern Hwy,Midvale,WA,6056,08 9274 5856,Open,,,,
2e2532e4-19c1-49e3-a73a-8125418e2052,Anytime Fitness,Morley,"Unit 2, 140 Russell Street",Morley,WA,6062,08 9375 9092,Open,,,,
1cf7d98d-d105-44ba-a4a0-4c42a7a3e3ea,Anytime Fitness,Nedlands,2/150 Stirling Highway,Nedlands,WA,6009,0434 093 611,Open,,,,
e4edba48-582f-48cd-87d4-4f38da4af246,Anytime Fitness,O'Connor,398 South Street,O'connor,WA,6163,08 9337 8787,Open,,,,
7b78136b-9a52-4b44-bcf8-42bf8ffb5184,Anytime Fitness,Perth,"158-160 Murray Street, first floor",Perth,WA,6000,08 9325 3789,Open,,,,
75268c17-3745-40c3-98b6-b0ca83962b64,Anytime Fitness,Rockingham,3-9 Enterprise Way,Rockingham,WA,6168,08 9529 3389,Open,,,,
f70551ae-a2e4-4442-8b8f-d1202f412bf2,Anytime Fitness,Secret Harbour,2 Oasis Drive,Secret Harbour,WA,6173,08 9524 9444,Open,,,,
2744d161-4a40-40dd-afea-62eda3325c4c,Anytime Fitness,Southern River,"Unit 2, 20 Wright Road",Southern River,WA,6112,08 9490 7002,Open,,,,
4e82730b-e135-45dc-b72b-83b95c9bee30,Anytime Fitness,Stirling,"Unit 7, 39 Erindale Road",Stirling,WA,6021,08 9445 1195,Open,,,,
db97e75a-eba1-4e96-b609-f73bd0f8b372,Anytime Fitness,Subiaco,335 Churchill Avenue,Subiaco,WA,6008,08 9381 5126,Open,,,,
aeadd784-d863-4fb3-a274-ae40edff06b8,Anytime Fitness,Success,"Unit 1, 676 Beeliar Drive, Cnr Hammond Road Success Homemaker Centre",Success,WA,6164,08 9499 4580,Open,,,,
c9c8ea12-881c-4a67-94ac-44bbf0474030,Anytime Fitness,Thornlie,"Shop 14, Thornlie Shopping Centre, Cnr Spencer & Connemara Roads",Thornlie,WA,6108,08 9452 7773,Open,,,,
794ca853-7414-49fe-bddd-c243d70a8334,Anytime Fitness,Wanneroo,"Wanneroo Central Shopping Centre, Rocca Way (above Commonwealth Bank)",Wanneroo,WA,6065,08 9306 8462,Open,,,,
42313073-572e-4dc1-9c19-0e5d490f8d11,Anytime Fitness,Willetton,151 High Road,Willetton,WA,6155,08 9457 2235,Open,,,,
458ec4fc-84e6-4b08-8d3c-88f190c8716a,Anytime Fitness,Yanchep,,Yanchep,WA,,,Coming Soon,,,,